NORAD_CAT_ID,OBJECT_NAME,OBJECT_TYPE,EPOCH,MEAN_MOTION,ECCENTRICITY,INCLINATION,RA_OF_ASC_NODE,ARG_OF_PERICENTER,MEAN_ANOMALY,BSTAR,MEAN_MOTION_DOT,MEAN_MOTION_DDOT,TLE_LINE0,TLE_LINE1,TLE_LINE2,SEMIMAJOR_AXIS,PERIOD,APOGEE,PERIGEE,DECAYED
52123.0,STARLINK-3725,PAYLOAD,2024-01-05 11:14:52,15.08839666,0.0001518,53.2175,34.4486,101.0759,259.0404,0.00010602,1.4e-05,0.0,0 STARLINK-3725,1 52123U 22029AM  24005.46865975  .00001400  00000-0  10602-3 0  9996,2 52123  53.2175  34.4486 0001518 101.0759 259.0404 15.08839666101036,6917.881,95.438,540.797,538.696,0.0
52123.0,STARLINK-3725,PAYLOAD,2024-01-06 11:05:38,15.08844621,0.0001732,53.2179,29.9868,122.5024,237.6135,0.00015982,2.257e-05,0.0,0 STARLINK-3725,1 52123U 22029AM  24006.46225339  .00002257  00000-0  15982-3 0  9998,2 52123  53.2179  29.9868 0001732 122.5024 237.6135 15.08844621101180,6917.866,95.437,540.929,538.533,0.0
52123.0,STARLINK-3725,PAYLOAD,2024-01-07 01:24:07,15.08836151,0.0001501,53.2172,27.3078,111.0147,249.1006,6.1954e-05,6.98e-06,0.0,0 STARLINK-3725,1 52123U 22029AM  24007.05842094  .00000698  00000-0  61954-4 0  9995,2 52123  53.2172  27.3078 0001501 111.0147 249.1006 15.08836151101275,6917.892,95.438,540.796,538.719,0.0
52123.0,STARLINK-3725,PAYLOAD,2024-01-07 07:45:39,15.08844539,0.0001495,53.2175,26.1202,114.235,245.8798,5.9624e-05,6.61e-06,0.0,0 STARLINK-3725,1 52123U 22029AM  24007.32337613  .00000661  00000-0  59624-4 0  9992,2 52123  53.2175  26.1202 0001495 114.2350 245.8798 15.08844539101312,6917.867,95.437,540.766,538.697,0.0
52123.0,STARLINK-3725,PAYLOAD,2024-01-08 10:47:12,15.08847829,0.0001627,53.2175,21.0672,116.5331,243.5828,9.118e-05,1.164e-05,0.0,0 STARLINK-3725,1 52123U 22029AM  24008.44945295  .00001164  00000-0  91180-4 0  9999,2 52123  53.2175  21.0672 0001627 116.5331 243.5828 15.08847829101480,6917.856,95.437,540.847,538.596,0.0
52123.0,STARLINK-3725,PAYLOAD,2024-01-09 01:05:41,15.08837655,0.000156,53.2171,18.3882,103.1609,256.9557,1.9806e-05,2.7e-07,0.0,0 STARLINK-3725,1 52123U 22029AM  24009.04562241  .00000027  00000-0  19806-4 0  9994,2 52123  53.2171  18.3882 0001560 103.1609 256.9557 15.08837655101577,6917.888,95.438,540.832,538.673,0.0
52123.0,STARLINK-3725,PAYLOAD,2024-01-09 05:51:50,15.08842297,0.0001516,53.2177,17.4994,100.7159,259.4004,9.0348e-05,1.15e-05,0.0,0 STARLINK-3725,1 52123U 22029AM  24009.24433868  .00001150  00000-0  90348-4 0  9996,2 52123  53.2177  17.4994 0001516 100.7159 259.4004 15.08842297101608,6917.873,95.437,540.787,538.69,0.0
52123.0,STARLINK-3725,PAYLOAD,2024-01-10 04:07:15,15.08839081,0.0001473,53.2175,13.3365,101.9482,258.1675,5.7483e-05,6.27e-06,0.0,0 STARLINK-3725,1 52123U 22029AM  24010.17170331  .00000627  00000-0  57483-4 0  9994,2 52123  53.2175  13.3365 0001473 101.9482 258.1675 15.08839081101749,6917.883,95.438,540.767,538.729,0.0
52123.0,STARLINK-3725,PAYLOAD,2024-01-10 05:42:38,15.08840511,0.0001456,53.2175,13.0392,93.0036,267.1123,5.3628e-05,5.66e-06,0.0,0 STARLINK-3725,1 52123U 22029AM  24010.23794304  .00000566  00000-0  53628-4 0  9992,2 52123  53.2175  13.0392 0001456  93.0036 267.1123 15.08840511101752,6917.879,95.438,540.751,538.737,0.0
52123.0,STARLINK-3725,PAYLOAD,2024-01-11 08:44:11,15.08847288,0.000148,53.2165,7.9828,105.95,254.1656,0.00019229,2.774e-05,0.0,0 STARLINK-3725,1 52123U 22029AM  24011.36401921  .00002774  00000-0  19229-3 0  9998,2 52123  53.2165   7.9828 0001480 105.9500 254.1656 15.08847288101927,6917.858,95.437,540.747,538.699,0.0
52123.0,STARLINK-3725,PAYLOAD,2024-01-12 03:48:49,15.08841015,0.0001586,53.2174,4.4144,114.8085,245.3072,7.6189e-05,9.25e-06,0.0,0 STARLINK-3725,1 52123U 22029AM  24012.15890155  .00000925  00000-0  76189-4 0  9992,2 52123  53.2174   4.4144 0001586 114.8085 245.3072 15.08841015102044,6917.877,95.437,540.839,538.645,0.0
52123.0,STARLINK-3725,PAYLOAD,2024-01-12 08:34:58,15.0884872,0.0001481,53.2161,3.5238,82.7095,277.4066,0.00023752,3.495e-05,0.0,0 STARLINK-3725,1 52123U 22029AM  24012.35762041  .00003495  00000-0  23752-3 0  9998,2 52123  53.2161   3.5238 0001481  82.7095 277.4066 15.08848720102074,6917.854,95.437,540.743,538.694,0.0
52123.0,STARLINK-3725,PAYLOAD,2024-01-13 08:25:45,15.08844159,0.0001431,53.2184,359.0493,107.5552,252.5596,0.00017658,2.524e-05,0.0,0 STARLINK-3725,1 52123U 22029AM  24013.35122210  .00002524  00000-0  17658-3 0  9997,2 52123  53.2184 359.0493 0001431 107.5552 252.5596 15.08844159102221,6917.868,95.437,540.723,538.743,0.0
52123.0,STARLINK-3725,PAYLOAD,2024-01-14 08:16:32,15.08842208,0.0001869,53.22,354.5929,105.8236,254.2962,9.2411e-05,1.183e-05,0.0,0 STARLINK-3725,1 52123U 22029AM  24014.34482545  .00001183  00000-0  92411-4 0  9998,2 52123  53.2200 354.5929 0001869 105.8236 254.2962 15.08842208102374,6917.874,95.437,541.032,538.446,0.0
52123.0,STARLINK-3725,PAYLOAD,2024-01-15 08:07:19,15.08857551,0.000156,53.2187,350.1364,104.8909,255.2256,0.0004332,6.616e-05,0.0,0 STARLINK-3725,1 52123U 22029AM  24015.33842031  .00006616  00000-0  43320-3 0  9998,2 52123  53.2187 350.1364 0001560 104.8909 255.2256 15.08857551102528,6917.827,95.436,540.771,538.613,0.0
52123.0,STARLINK-3725,PAYLOAD,2024-01-15 22:25:47,15.08837367,0.0002567,53.2179,347.4514,153.1555,206.9571,-9.4404e-05,-1.791e-05,0.0,0 STARLINK-3725,1 52123U 22029AM  24015.93458311 -.00001791  00000-0 -94404-4 0  9999,2 52123  53.2179 347.4514 0002567 153.1555 206.9571 15.08837367102613,6917.888,95.438,541.529,537.978,0.0
52123.0,STARLINK-3725,PAYLOAD,2024-01-16 07:58:07,15.08836235,0.0001478,53.2178,345.6814,92.925,267.1911,3.5871e-05,2.83e-06,0.0,0 STARLINK-3725,1 52123U 22029AM  24016.33203307  .00000283  00000-0  35871-4 0  9993,2 52123  53.2178 345.6814 0001478  92.9250 267.1911 15.08836235102673,6917.892,95.438,540.779,538.734,0.0
52123.0,STARLINK-3725,PAYLOAD,2024-01-16 22:16:36,15.08840042,0.0001589,53.2175,343.0058,95.5772,264.5401,0.00017948,2.57e-05,0.0,0 STARLINK-3725,1 52123U 22029AM  24016.92819611  .00002570  00000-0  17948-3 0  9994,2 52123  53.2175 343.0058 0001589  95.5772 264.5401 15.08840042102769,6917.88,95.438,540.845,538.646,0.0
52123.0,STARLINK-3725,PAYLOAD,2024-01-17 03:02:45,15.08847224,0.0001506,53.2179,342.1136,94.4179,265.6985,0.00041894,6.387e-05,0.0,0 STARLINK-3725,1 52123U 22029AM  24017.12691210  .00006387  00000-0  41894-3 0  9997,2 52123  53.2179 342.1136 0001506  94.4179 265.6985 15.08847224102799,6917.858,95.437,540.765,538.681,0.0
52123.0,STARLINK-3725,PAYLOAD,2024-01-18 02:53:32,15.08839342,0.000137,53.217,337.6533,94.2041,265.9108,0.00017968,2.573e-05,0.0,0 STARLINK-3725,1 52123U 22029AM  24018.12051542  .00002573  00000-0  17968-3 0  9994,2 52123  53.2170 337.6533 0001370  94.2041 265.9108 15.08839342102944,6917.882,95.438,540.695,538.8,0.0
52123.0,STARLINK-3725,PAYLOAD,2024-01-18 06:04:18,15.08842565,0.0001474,53.2176,337.0565,78.1794,281.9363,0.0002195,3.207e-05,0.0,0 STARLINK-3725,1 52123U 22029AM  24018.25299503  .00003207  00000-0  21950-3 0  9990,2 52123  53.2176 337.0565 0001474  78.1794 281.9363 15.08842565102964,6917.873,95.437,540.757,538.718,0.0
52123.0,STARLINK-3725,PAYLOAD,2024-01-19 04:19:42,15.08856025,0.0001355,53.2169,332.895,105.4883,254.6259,0.00022146,3.24e-05,0.0,0 STARLINK-3725,1 52123U 22029AM  24019.18034753  .00003240  00000-0  22146-3 0  9992,2 52123  53.2169 332.8950 0001355 105.4883 254.6259 15.08856025103102,6917.831,95.437,540.634,538.759,0.0
52123.0,STARLINK-3725,PAYLOAD,2024-01-19 20:13:34,15.08837674,0.0001517,53.218,329.9187,86.0404,274.0761,1.5691e-05,-3.8e-07,0.0,0 STARLINK-3725,1 52123U 22029AM  24019.84275746 -.00000038  00000-0  15691-4 0  9995,2 52123  53.2180 329.9187 0001517  86.0404 274.0761 15.08837674103201,6917.887,95.438,540.802,538.703,0.0
52123.0,STARLINK-3725,PAYLOAD,2024-01-20 05:45:52,15.08844238,0.0001428,53.2179,328.1355,83.6866,276.4289,0.00012891,1.764e-05,0.0,0 STARLINK-3725,1 52123U 22029AM  24020.24019577  .00001764  00000-0  12891-3 0  9993,2 52123  53.2179 328.1355 0001428  83.6866 276.4289 15.08844238103264,6917.867,95.437,540.72,538.745,0.0
52123.0,STARLINK-3725,PAYLOAD,2024-01-21 02:25:53,15.08855336,0.0001427,53.218,324.2709,91.488,268.6276,0.0001703,2.425e-05,0.0,0 STARLINK-3725,1 52123U 22029AM  24021.10131011  .00002425  00000-0  17030-3 0  9992,2 52123  53.2180 324.2709 0001427  91.4880 268.6276 15.08855336103392,6917.834,95.437,540.686,538.711,0.0
52123.0,STARLINK-3725,PAYLOAD,2024-01-21 05:36:39,15.08857108,0.0001402,53.218,323.6752,100.993,259.122,0.00019921,2.885e-05,0.0,0 STARLINK-3725,1 52123U 22029AM  24021.23378814  .00002885  00000-0  19921-3 0  9991,2 52123  53.2180 323.6752 0001402 100.9930 259.1220 15.08857108103414,6917.828,95.436,540.663,538.723,0.0
52123.0,STARLINK-3725,PAYLOAD,2024-01-21 19:55:08,15.08838445,0.0001594,53.2181,320.9991,93.3784,266.7391,1.9145e-05,1.7e-07,0.0,0 STARLINK-3725,1 52123U 22029AM  24021.82995935  .00000017  00000-0  19145-4 0  9999,2 52123  53.2181 320.9991 0001594  93.3784 266.7391 15.08838445103500,6917.885,95.438,540.853,538.647,0.0
52123.0,STARLINK-3725,PAYLOAD,2024-01-22 02:16:40,15.08842783,0.0001567,53.2181,319.8104,99.2708,260.8462,8.8259e-05,1.117e-05,0.0,0 STARLINK-3725,1 52123U 22029AM  24022.09491680  .00001117  00000-0  88259-4 0  9991,2 52123  53.2181 319.8104 0001567  99.2708 260.8462 15.08842783103542,6917.872,95.437,540.821,538.653,0.0
52123.0,STARLINK-3725,PAYLOAD,2024-01-22 22:56:41,15.08846989,0.0001629,53.2182,315.9462,98.7276,261.39,2.0263e-05,3.5e-07,0.0,0 STARLINK-3725,1 52123U 22029AM  24022.95603544  .00000035  00000-0  20263-4 0  9999,2 52123  53.2182 315.9462 0001629  98.7276 261.3900 15.08846989103679,6917.859,95.437,540.851,538.597,0.0
52123.0,STARLINK-3725,PAYLOAD,2024-01-23 00:32:04,15.08847412,0.0001611,53.2182,315.6487,99.5091,260.6084,3.1893e-05,2.2e-06,0.0,0 STARLINK-3725,1 52123U 22029AM  24023.02227502  .00000220  00000-0  31893-4 0  9991,2 52123  53.2182 315.6487 0001611  99.5091 260.6084 15.08847412103686,6917.858,95.437,540.837,538.608,0.0
